UNKNOWN                 
1 81317U          25363.80117330  .00000236  00000+0  50066-3 0  9992
2 81317  67.1360 139.0622 0210849  22.1459 125.9183 13.38021818590913
UNKNOWN                 
1 81323U          25360.67716260  .00026914  00000+0  34386-2 0  9995
2 81323  65.7521 349.8986 0345030 306.0245  50.9326 14.47379709115077
UNKNOWN                 
1 81329U          25364.31486576  .00001826  00000+0  67842-3 0  9999
2 81329  65.8208  89.9815 0832249  21.9850 341.4792 13.22187699580402
UNKNOWN                 
1 81343U          26001.79904189  .00012665  00000+0  91047-3 0  9998
2 81343  85.8721 188.6325 0008269 177.1982 182.9300 15.04129630457331
UNKNOWN                 
1 81359U          26001.98919444  .00001356  00000+0  13307-2 0  9993
2 81359  66.7992   3.5277 0119276 310.1168  48.9499 13.78873311608275
UNKNOWN                 
1 81366U          26002.45707117  .00001304  00000+0  49140-3 0  9994
2 81366  65.8838  22.9833 0710037  71.5408 296.1443 13.45177495 68744
UNKNOWN                 
1 81371U          25349.02062434  .00002320  00000+0  37982-3 0  9992
2 81371  98.8144  85.6265 0070126 358.1968   1.8972 14.70293799642172
UNKNOWN                 
1 81386U          25357.21895263  .00006029  00000+0  19923-2 0  9996
2 81386  71.0480 333.8064 0083954  67.7151 293.2858 14.36355118625749
UNKNOWN                 
1 81390U          26001.89705575 -.00000127  00000+0 -58220-3 0  9997
2 81390 103.1076 256.9578 0166897 108.0901 253.8413 12.35628505502582
UNKNOWN                 
1 81392U          25361.24285824  .00003584  00000+0  33732-2 0  9994
2 81392 100.4002 350.9273 0042632 353.6189  24.8119 13.81774717604183
UNKNOWN                 
1 81405U          25364.92331396  .00002549  00000+0  19318-2 0  9997
2 81405  99.4682  53.3873 0161205 175.3137 184.9574 13.88940446564324
UNKNOWN                 
1 81406U          25354.93559605  .00000948  00000+0  39727-3 0  9991
2 81406  65.8190 136.2966 0869929 316.2525  37.2633 13.12175268534754
