CCSDS_OMM_VERS = 2.0
CREATION_DATE  = 
ORIGINATOR     = 

OBJECT_NAME    = UNKNOWN
OBJECT_ID      = 
CENTER_NAME    = EARTH
REF_FRAME      = TEME
TIME_SYSTEM    = UTC
MEAN_ELEMENT_THEORY = SGP/SGP4

EPOCH          = 2025-12-29T19:13:41.373120
MEAN_MOTION    = 13.38021818
ECCENTRICITY   = .0210849
INCLINATION    = 67.1360
RA_OF_ASC_NODE = 139.0622
ARG_OF_PERICENTER = 22.1459
MEAN_ANOMALY   = 125.9183

EPHEMERIS_TYPE = 0
CLASSIFICATION_TYPE = U
NORAD_CAT_ID   = 81317
ELEMENT_SET_NO = 999
REV_AT_EPOCH   = 59091
BSTAR          = .50066E-3
MEAN_MOTION_DOT = .236E-5
MEAN_MOTION_DDOT = 0

CCSDS_OMM_VERS = 2.0
CREATION_DATE  = 
ORIGINATOR     = 

OBJECT_NAME    = UNKNOWN
OBJECT_ID      = 
CENTER_NAME    = EARTH
REF_FRAME      = TEME
TIME_SYSTEM    = UTC
MEAN_ELEMENT_THEORY = SGP/SGP4

EPOCH          = 2025-12-26T16:15:06.848640
MEAN_MOTION    = 14.47379709
ECCENTRICITY   = .034503
INCLINATION    = 65.7521
RA_OF_ASC_NODE = 349.8986
ARG_OF_PERICENTER = 306.0245
MEAN_ANOMALY   = 50.9326

EPHEMERIS_TYPE = 0
CLASSIFICATION_TYPE = U
NORAD_CAT_ID   = 81323
ELEMENT_SET_NO = 999
REV_AT_EPOCH   = 11507
BSTAR          = .34386E-2
MEAN_MOTION_DOT = .26914E-3
MEAN_MOTION_DDOT = 0

CCSDS_OMM_VERS = 2.0
CREATION_DATE  = 
ORIGINATOR     = 

OBJECT_NAME    = UNKNOWN
OBJECT_ID      = 
CENTER_NAME    = EARTH
REF_FRAME      = TEME
TIME_SYSTEM    = UTC
MEAN_ELEMENT_THEORY = SGP/SGP4

EPOCH          = 2025-12-30T07:33:24.401664
MEAN_MOTION    = 13.22187699
ECCENTRICITY   = .0832249
INCLINATION    = 65.8208
RA_OF_ASC_NODE = 89.9815
ARG_OF_PERICENTER = 21.9850
MEAN_ANOMALY   = 341.4792

EPHEMERIS_TYPE = 0
CLASSIFICATION_TYPE = U
NORAD_CAT_ID   = 81329
ELEMENT_SET_NO = 999
REV_AT_EPOCH   = 58040
BSTAR          = .67842E-3
MEAN_MOTION_DOT = .1826E-4
MEAN_MOTION_DDOT = 0

CCSDS_OMM_VERS = 2.0
CREATION_DATE  = 
ORIGINATOR     = 

OBJECT_NAME    = UNKNOWN
OBJECT_ID      = 
CENTER_NAME    = EARTH
REF_FRAME      = TEME
TIME_SYSTEM    = UTC
MEAN_ELEMENT_THEORY = SGP/SGP4

EPOCH          = 2026-01-01T19:10:37.219296
MEAN_MOTION    = 15.04129630
ECCENTRICITY   = .0008269
INCLINATION    = 85.8721
RA_OF_ASC_NODE = 188.6325
ARG_OF_PERICENTER = 177.1982
MEAN_ANOMALY   = 182.9300

EPHEMERIS_TYPE = 0
CLASSIFICATION_TYPE = U
NORAD_CAT_ID   = 81343
ELEMENT_SET_NO = 999
REV_AT_EPOCH   = 45733
BSTAR          = .91047E-3
MEAN_MOTION_DOT = .12665E-3
MEAN_MOTION_DDOT = 0

CCSDS_OMM_VERS = 2.0
CREATION_DATE  = 
ORIGINATOR     = 

OBJECT_NAME    = UNKNOWN
OBJECT_ID      = 
CENTER_NAME    = EARTH
REF_FRAME      = TEME
TIME_SYSTEM    = UTC
MEAN_ELEMENT_THEORY = SGP/SGP4

EPOCH          = 2026-01-01T23:44:26.399616
MEAN_MOTION    = 13.78873311
ECCENTRICITY   = .0119276
INCLINATION    = 66.7992
RA_OF_ASC_NODE = 3.5277
ARG_OF_PERICENTER = 310.1168
MEAN_ANOMALY   = 48.9499

EPHEMERIS_TYPE = 0
CLASSIFICATION_TYPE = U
NORAD_CAT_ID   = 81359
ELEMENT_SET_NO = 999
REV_AT_EPOCH   = 60827
BSTAR          = .13307E-2
MEAN_MOTION_DOT = .1356E-4
MEAN_MOTION_DDOT = 0

CCSDS_OMM_VERS = 2.0
CREATION_DATE  = 
ORIGINATOR     = 

OBJECT_NAME    = UNKNOWN
OBJECT_ID      = 
CENTER_NAME    = EARTH
REF_FRAME      = TEME
TIME_SYSTEM    = UTC
MEAN_ELEMENT_THEORY = SGP/SGP4

EPOCH          = 2026-01-02T10:58:10.949088
MEAN_MOTION    = 13.45177495
ECCENTRICITY   = .0710037
INCLINATION    = 65.8838
RA_OF_ASC_NODE = 22.9833
ARG_OF_PERICENTER = 71.5408
MEAN_ANOMALY   = 296.1443

EPHEMERIS_TYPE = 0
CLASSIFICATION_TYPE = U
NORAD_CAT_ID   = 81366
ELEMENT_SET_NO = 999
REV_AT_EPOCH   = 6874
BSTAR          = .4914E-3
MEAN_MOTION_DOT = .1304E-4
MEAN_MOTION_DDOT = 0

CCSDS_OMM_VERS = 2.0
CREATION_DATE  = 
ORIGINATOR     = 

OBJECT_NAME    = UNKNOWN
OBJECT_ID      = 
CENTER_NAME    = EARTH
REF_FRAME      = TEME
TIME_SYSTEM    = UTC
MEAN_ELEMENT_THEORY = SGP/SGP4

EPOCH          = 2025-12-15T00:29:41.942976
MEAN_MOTION    = 14.70293799
ECCENTRICITY   = .0070126
INCLINATION    = 98.8144
RA_OF_ASC_NODE = 85.6265
ARG_OF_PERICENTER = 358.1968
MEAN_ANOMALY   = 1.8972

EPHEMERIS_TYPE = 0
CLASSIFICATION_TYPE = U
NORAD_CAT_ID   = 81371
ELEMENT_SET_NO = 999
REV_AT_EPOCH   = 64217
BSTAR          = .37982E-3
MEAN_MOTION_DOT = .232E-4
MEAN_MOTION_DDOT = 0

CCSDS_OMM_VERS = 2.0
CREATION_DATE  = 
ORIGINATOR     = 

OBJECT_NAME    = UNKNOWN
OBJECT_ID      = 
CENTER_NAME    = EARTH
REF_FRAME      = TEME
TIME_SYSTEM    = UTC
MEAN_ELEMENT_THEORY = SGP/SGP4

EPOCH          = 2025-12-23T05:15:17.507232
MEAN_MOTION    = 14.36355118
ECCENTRICITY   = .0083954
INCLINATION    = 71.0480
RA_OF_ASC_NODE = 333.8064
ARG_OF_PERICENTER = 67.7151
MEAN_ANOMALY   = 293.2858

EPHEMERIS_TYPE = 0
CLASSIFICATION_TYPE = U
NORAD_CAT_ID   = 81386
ELEMENT_SET_NO = 999
REV_AT_EPOCH   = 62574
BSTAR          = .19923E-2
MEAN_MOTION_DOT = .6029E-4
MEAN_MOTION_DDOT = 0

CCSDS_OMM_VERS = 2.0
CREATION_DATE  = 
ORIGINATOR     = 

OBJECT_NAME    = UNKNOWN
OBJECT_ID      = 
CENTER_NAME    = EARTH
REF_FRAME      = TEME
TIME_SYSTEM    = UTC
MEAN_ELEMENT_THEORY = SGP/SGP4

EPOCH          = 2026-01-01T21:31:45.616800
MEAN_MOTION    = 12.35628505
ECCENTRICITY   = .0166897
INCLINATION    = 103.1076
RA_OF_ASC_NODE = 256.9578
ARG_OF_PERICENTER = 108.0901
MEAN_ANOMALY   = 253.8413

EPHEMERIS_TYPE = 0
CLASSIFICATION_TYPE = U
NORAD_CAT_ID   = 81390
ELEMENT_SET_NO = 999
REV_AT_EPOCH   = 50258
BSTAR          = -.5822E-3
MEAN_MOTION_DOT = -.127E-5
MEAN_MOTION_DDOT = 0

CCSDS_OMM_VERS = 2.0
CREATION_DATE  = 
ORIGINATOR     = 

OBJECT_NAME    = UNKNOWN
OBJECT_ID      = 
CENTER_NAME    = EARTH
REF_FRAME      = TEME
TIME_SYSTEM    = UTC
MEAN_ELEMENT_THEORY = SGP/SGP4

EPOCH          = 2025-12-27T05:49:42.951936
MEAN_MOTION    = 13.81774717
ECCENTRICITY   = .0042632
INCLINATION    = 100.4002
RA_OF_ASC_NODE = 350.9273
ARG_OF_PERICENTER = 353.6189
MEAN_ANOMALY   = 24.8119

EPHEMERIS_TYPE = 0
CLASSIFICATION_TYPE = U
NORAD_CAT_ID   = 81392
ELEMENT_SET_NO = 999
REV_AT_EPOCH   = 60418
BSTAR          = .33732E-2
MEAN_MOTION_DOT = .3584E-4
MEAN_MOTION_DDOT = 0

CCSDS_OMM_VERS = 2.0
CREATION_DATE  = 
ORIGINATOR     = 

OBJECT_NAME    = UNKNOWN
OBJECT_ID      = 
CENTER_NAME    = EARTH
REF_FRAME      = TEME
TIME_SYSTEM    = UTC
MEAN_ELEMENT_THEORY = SGP/SGP4

EPOCH          = 2025-12-30T22:09:34.326144
MEAN_MOTION    = 13.88940446
ECCENTRICITY   = .0161205
INCLINATION    = 99.4682
RA_OF_ASC_NODE = 53.3873
ARG_OF_PERICENTER = 175.3137
MEAN_ANOMALY   = 184.9574

EPHEMERIS_TYPE = 0
CLASSIFICATION_TYPE = U
NORAD_CAT_ID   = 81405
ELEMENT_SET_NO = 999
REV_AT_EPOCH   = 56432
BSTAR          = .19318E-2
MEAN_MOTION_DOT = .2549E-4
MEAN_MOTION_DDOT = 0

CCSDS_OMM_VERS = 2.0
CREATION_DATE  = 
ORIGINATOR     = 

OBJECT_NAME    = UNKNOWN
OBJECT_ID      = 
CENTER_NAME    = EARTH
REF_FRAME      = TEME
TIME_SYSTEM    = UTC
MEAN_ELEMENT_THEORY = SGP/SGP4

EPOCH          = 2025-12-20T22:27:15.498720
MEAN_MOTION    = 13.12175268
ECCENTRICITY   = .0869929
INCLINATION    = 65.8190
RA_OF_ASC_NODE = 136.2966
ARG_OF_PERICENTER = 316.2525
MEAN_ANOMALY   = 37.2633

EPHEMERIS_TYPE = 0
CLASSIFICATION_TYPE = U
NORAD_CAT_ID   = 81406
ELEMENT_SET_NO = 999
REV_AT_EPOCH   = 53475
BSTAR          = .39727E-3
MEAN_MOTION_DOT = .948E-5
MEAN_MOTION_DDOT = 0

